STARLINK-2022           
1 47643U 21012Z   23308.41287267  .00010495  00000+0  72171-3 0  9992
2 47643  53.0544 295.5954 0001475  82.0997 278.0159 15.06435276151208
